0 FENGYUN 1C DEB
1 38139U 99025EQL 13287.52806049  .00007338  00000-0  27466-2 0   443
2 38139 099.1403 033.9863 0033662 074.2867 303.2521 14.31742692246689
